{
  "norad_id": 68893,
  "name": "VIASAT-3 F3",
  "history": [
    {
      "epoch": "2026-05-04T20:18:51.081120Z",
      "apogee_km": 33150.11849676432,
      "perigee_km": 23016.17194164076,
      "latitude_deg": -2.4352504187381374,
      "longitude_deg": 49.67753186392267,
      "height_km": 29752.092128020195,
      "semi_major_axis_km": 34461.28221920254,
      "eccentricity": 0.1470338,
      "inclination_deg": 2.7052,
      "raan_deg": 280.4841,
      "arg_perigee_deg": 179.7656,
      "mean_anomaly_deg": 101.1188,
      "mean_motion_rev_day": 1.35708051
    }
  ]
}