VIASAT-3 F3             
1 68893U 26096A   26124.84642455 -.00000103  00000+0  00000+0 0  9993
2 68893   2.7052 280.4841 1470338 179.7656 101.1188  1.35708051    62
